[{"OBJECT_NAME":"ICEYE-X57","OBJECT_ID":"2025-135BC","EPOCH":"2026-03-09T22:18:00.647424","MEAN_MOTION":15.00870088,"ECCENTRICITY":0.00021914,"INCLINATION":97.7623,"RA_OF_ASC_NODE":185.2979,"ARG_OF_PERICENTER":76.2741,"MEAN_ANOMALY":283.8727,"EPHEMERIS_TYPE":0,"CLASSIFICATION_TYPE":"U","NORAD_CAT_ID":64578,"ELEMENT_SET_NO":999,"REV_AT_EPOCH":3913,"BSTAR":0.00060837081,"MEAN_MOTION_DOT":7.683e-5,"MEAN_MOTION_DDOT":0},{"OBJECT_NAME":"STARLINK-35794","OBJECT_ID":"2025-298L","EPOCH":"2026-03-09T22:40:21.040608","MEAN_MOTION":14.99140238,"ECCENTRICITY":0.000246,"INCLINATION":70.0018,"RA_OF_ASC_NODE":13.8954,"ARG_OF_PERICENTER":239.7803,"MEAN_ANOMALY":120.3113,"EPHEMERIS_TYPE":0,"CLASSIFICATION_TYPE":"U","NORAD_CAT_ID":67085,"ELEMENT_SET_NO":999,"REV_AT_EPOCH":1325,"BSTAR":0.00057556911,"MEAN_MOTION_DOT":6.926e-5,"MEAN_MOTION_DDOT":0}]
